NORAD_CAT_ID,OBJECT_NAME,OBJECT_TYPE,EPOCH,MEAN_MOTION,ECCENTRICITY,INCLINATION,RA_OF_ASC_NODE,ARG_OF_PERICENTER,MEAN_ANOMALY,BSTAR,MEAN_MOTION_DOT,MEAN_MOTION_DDOT,TLE_LINE0,TLE_LINE1,TLE_LINE2,SEMIMAJOR_AXIS,PERIOD,APOGEE,PERIGEE,DECAYED
55641.0,STARLINK-5065,PAYLOAD,2024-06-18 21:27:58,14.98334873,0.0002905,70.0006,329.8858,269.2817,90.8009,5.9066e-05,6.12e-06,0.0,0 STARLINK-5065,1 55641U 23021P   24170.89442818  .00000612  00000-0  59066-4 0  9996,2 55641  70.0006 329.8858 0002905 269.2817  90.8009 14.98334873 74603,6950.178,96.107,574.062,570.024,0.0
55641.0,STARLINK-5065,PAYLOAD,2024-06-19 13:29:19,14.98326787,0.0002875,70.0005,328.2018,269.7324,90.3506,3.3925e-06,-5.2e-07,0.0,0 STARLINK-5065,1 55641U 23021P   24171.56203450 -.00000052  00000-0  33925-5 0  9994,2 55641  70.0005 328.2018 0002875 269.7324  90.3506 14.98326787 74407,6950.203,96.107,574.066,570.07,0.0
55641.0,STARLINK-5065,PAYLOAD,2024-06-19 19:53:52,14.98327284,0.000293,70.0007,327.5291,268.2976,91.7847,-4.0497e-06,-1.41e-06,0.0,0 STARLINK-5065,1 55641U 23021P   24171.82907444 -.00000141  00000-0 -40497-5 0  9999,2 55641  70.0007 327.5291 0002930 268.2976  91.7847 14.98327284 74746,6950.201,96.107,574.103,570.03,0.0
55641.0,STARLINK-5065,PAYLOAD,2024-06-20 13:31:20,14.98327559,0.0003023,70.0003,325.6769,269.679,90.4022,4.0171e-07,-8.8e-07,0.0,0 STARLINK-5065,1 55641U 23021P   24172.56343474 -.00000088  00000-0  40171-6 0  9997,2 55641  70.0003 325.6769 0003023 269.6790  90.4022 14.98327559 74852,6950.2,96.107,574.166,569.964,0.0
55641.0,STARLINK-5065,PAYLOAD,2024-06-20 19:55:52,14.98331141,0.0003041,70.0004,325.0036,269.7865,90.2945,-1.0536e-05,-2.19e-06,0.0,0 STARLINK-5065,1 55641U 23021P   24172.83047286 -.00000219  00000-0 -10536-4 0  9996,2 55641  70.0004 325.0036 0003041 269.7865  90.2945 14.98331141 74593,6950.189,96.107,574.168,569.941,0.0
55641.0,STARLINK-5065,PAYLOAD,2024-06-21 11:57:13,14.98329324,0.0003077,70.0004,323.3204,269.8238,90.2568,7.1473e-05,7.6e-06,0.0,0 STARLINK-5065,1 55641U 23021P   24173.49807175  .00000760  00000-0  71473-4 0  9996,2 55641  70.0004 323.3204 0003077 269.8238  90.2568 14.98329324 74990,6950.195,96.107,574.199,569.921,0.0
55641.0,STARLINK-5065,PAYLOAD,2024-06-21 19:57:53,14.9833297,0.0003038,70.0008,322.4801,269.8115,90.2696,7.3995e-05,7.9e-06,0.0,0 STARLINK-5065,1 55641U 23021P   24173.83186940  .00000790  00000-0  73995-4 0  9998,2 55641  70.0008 322.4801 0003038 269.8115  90.2696 14.98332970 74744,6950.184,96.107,574.16,569.937,0.0
55641.0,STARLINK-5065,PAYLOAD,2024-06-22 13:35:22,14.98327995,0.0003016,70.0008,320.6271,270.2732,89.8081,3.7307e-05,3.52e-06,0.0,0 STARLINK-5065,1 55641U 23021P   24174.56623366  .00000352  00000-0  37307-4 0  9998,2 55641  70.0008 320.6271 0003016 270.2732  89.8081 14.98327995 74857,6950.199,96.107,574.16,569.968,0.0
55641.0,STARLINK-5065,PAYLOAD,2024-06-22 19:59:54,14.98330018,0.0002996,70.001,319.9546,270.064,90.0176,3.7691e-05,3.57e-06,0.0,0 STARLINK-5065,1 55641U 23021P   24174.83327248  .00000357  00000-0  37691-4 0  9999,2 55641  70.0010 319.9546 0002996 270.0640  90.0176 14.98330018 75195,6950.193,96.107,574.14,569.976,0.0
55641.0,STARLINK-5065,PAYLOAD,2024-06-23 13:37:23,14.98331816,0.0002949,70.0012,318.103,266.8367,93.2454,4.7076e-06,-3.7e-07,0.0,0 STARLINK-5065,1 55641U 23021P   24175.56763154 -.00000037  00000-0  47076-5 0  9995,2 55641  70.0012 318.1030 0002949 266.8367  93.2454 14.98331816 75307,6950.187,96.107,574.102,570.003,0.0
55641.0,STARLINK-5065,PAYLOAD,2024-06-23 18:25:47,14.98333546,0.0002906,70.0013,317.598,266.3198,93.7629,2.7235e-05,2.32e-06,0.0,0 STARLINK-5065,1 55641U 23021P   24175.76790953  .00000232  00000-0  27235-4 0  9994,2 55641  70.0013 317.5980 0002906 266.3198  93.7629 14.98333546 75036,6950.182,96.107,574.067,570.027,0.0
55641.0,STARLINK-5065,PAYLOAD,2024-06-24 13:39:23,14.98332363,0.000295,70.0012,315.5782,263.749,96.3333,5.6512e-05,5.81e-06,0.0,0 STARLINK-5065,1 55641U 23021P   24176.56902771  .00000581  00000-0  56512-4 0  9993,2 55641  70.0012 315.5782 0002950 263.7490  96.3333 14.98332363 75451,6950.186,96.107,574.101,570.0,0.0
55641.0,STARLINK-5065,PAYLOAD,2024-06-24 18:27:48,14.98333102,0.0002945,70.0013,315.0733,264.1211,95.9612,6.2093e-05,6.48e-06,0.0,0 STARLINK-5065,1 55641U 23021P   24176.76930683  .00000648  00000-0  62093-4 0  9993,2 55641  70.0013 315.0733 0002945 264.1211  95.9612 14.98333102 75180,6950.183,96.107,574.095,570.001,0.0
55641.0,STARLINK-5065,PAYLOAD,2024-06-25 13:41:25,14.9833012,0.000291,70.0014,313.0536,262.1797,97.9032,-3.7681e-07,-9.7e-07,0.0,0 STARLINK-5065,1 55641U 23021P   24177.57042954 -.00000097  00000-0 -37681-6 0  9995,2 55641  70.0014 313.0536 0002910 262.1797  97.9032 14.98330120 75601,6950.193,96.107,574.08,570.035,0.0
55641.0,STARLINK-5065,PAYLOAD,2024-06-25 18:29:49,14.98330691,0.0002906,70.0014,312.5487,262.7528,97.3301,4.3112e-06,-4.2e-07,0.0,0 STARLINK-5065,1 55641U 23021P   24177.77070898 -.00000042  00000-0  43112-5 0  9999,2 55641  70.0014 312.5487 0002906 262.7528  97.3301 14.98330691 75339,6950.191,96.107,574.075,570.036,0.0
55641.0,STARLINK-5065,PAYLOAD,2024-06-26 12:07:17,14.98331088,0.000308,70.001,310.6964,271.3131,88.7675,-2.23e-05,-3.59e-06,0.0,0 STARLINK-5065,1 55641U 23021P   24178.50506879 -.00000359  00000-0 -22300-4 0  9991,2 55641  70.0010 310.6964 0003080 271.3131  88.7675 14.98331088 75748,6950.19,96.107,574.195,569.914,0.0
55641.0,STARLINK-5065,PAYLOAD,2024-06-27 12:09:21,14.98312105,0.0003281,70.0007,308.171,269.7859,90.2924,-0.00016078,-2.01e-05,0.0,0 STARLINK-5065,1 55641U 23021P   24179.50649309 -.00002010  00000-0 -16078-3 0  9998,2 55641  70.0007 308.1710 0003281 269.7859  90.2924 14.98312105 75593,6950.248,96.108,574.394,569.833,0.0
55641.0,STARLINK-5065,PAYLOAD,2024-06-27 18:33:52,14.98325604,0.0003196,70.0006,307.4974,269.7862,90.2931,6.5682e-06,-1.5e-07,0.0,0 STARLINK-5065,1 55641U 23021P   24179.77352189 -.00000015  00000-0  65682-5 0  9993,2 55641  70.0006 307.4974 0003196 269.7862  90.2931 14.98325604 75636,6950.206,96.107,574.293,569.85,0.0
55641.0,STARLINK-5065,PAYLOAD,2024-06-28 12:11:19,14.98342677,0.0003075,70.0008,305.6456,270.5781,89.5026,0.0001998,2.293e-05,0.0,0 STARLINK-5065,1 55641U 23021P   24180.50786690  .00002293  00000-0  19980-3 0  9991,2 55641  70.0008 305.6456 0003075 270.5781  89.5026 14.98342677 75746,6950.154,96.106,574.156,569.882,0.0
55641.0,STARLINK-5065,PAYLOAD,2024-06-28 18:35:50,14.98351542,0.0003092,70.001,304.9756,265.315,94.7656,0.0003274,3.818e-05,0.0,0 STARLINK-5065,1 55641U 23021P   24180.77489471  .00003818  00000-0  32740-3 0  9990,2 55641  70.0010 304.9756 0003092 265.3150  94.7656 14.98351542 75787,6950.126,96.106,574.14,569.842,0.0
55641.0,STARLINK-5065,PAYLOAD,2024-06-29 01:00:24,14.98339861,0.000341,70.0004,304.3012,264.8677,95.2093,0.00021515,2.476e-05,0.0,0 STARLINK-5065,1 55641U 23021P   24181.04194519  .00002476  00000-0  21515-3 0  9994,2 55641  70.0004 304.3012 0003410 264.8677  95.2093 14.98339861 75827,6950.162,96.106,574.397,569.657,0.0
55641.0,STARLINK-5065,PAYLOAD,2024-06-29 12:13:21,14.98331582,0.0002469,70.0017,303.1258,250.8864,109.2028,0.00011138,1.236e-05,0.0,0 STARLINK-5065,1 55641U 23021P   24181.50927554  .00001236  00000-0  11138-3 0  9991,2 55641  70.0017 303.1258 0002469 250.8864 109.2028 14.98331582 75899,6950.188,96.107,573.769,570.337,0.0
55641.0,STARLINK-5065,PAYLOAD,2024-06-29 13:49:29,14.98330693,0.0002514,70.0019,302.9579,249.9309,110.158,0.0001005,1.106e-05,0.0,0 STARLINK-5065,1 55641U 23021P   24181.57603647  .00001106  00000-0  10050-3 0  9990,2 55641  70.0019 302.9579 0002514 249.9309 110.1580 14.98330693 76200,6950.191,96.107,573.803,570.308,0.0
55641.0,STARLINK-5065,PAYLOAD,2024-06-29 18:37:53,14.98330605,0.0002555,70.0018,302.4518,252.3991,107.6889,8.676e-05,9.42e-06,0.0,0 STARLINK-5065,1 55641U 23021P   24181.77631620  .00000942  00000-0  86760-4 0  9993,2 55641  70.0018 302.4518 0002555 252.3991 107.6889 14.98330605 76236,6950.191,96.107,573.832,570.28,0.0
55641.0,STARLINK-5065,PAYLOAD,2024-06-30 12:15:21,14.9834519,0.0002752,70.0006,300.5972,268.9196,91.1647,-0.00013553,-1.71e-05,0.0,0 STARLINK-5065,1 55641U 23021P   24182.51066937 -.00001710  00000-0 -13553-3 0  9994,2 55641  70.0006 300.5972 0002752 268.9196  91.1647 14.98345190 76341,6950.146,96.106,573.924,570.098,0.0
55641.0,STARLINK-5065,PAYLOAD,2024-06-30 17:03:45,14.98346009,0.0002733,70.0006,300.0923,269.5372,90.5474,-0.00011293,-1.441e-05,0.0,0 STARLINK-5065,1 55641U 23021P   24182.71094656 -.00001441  00000-0 -11293-3 0  9995,2 55641  70.0006 300.0923 0002733 269.5372  90.5474 14.98346009 76075,6950.143,96.106,573.908,570.109,0.0
55641.0,STARLINK-5065,PAYLOAD,2024-07-01 01:04:25,14.98360502,0.0002732,70.0012,299.2495,275.895,84.1897,-0.00038383,-4.673e-05,0.0,0 STARLINK-5065,1 55641U 23021P   24183.04473997 -.00004673  00000-0 -38383-3 0  9990,2 55641  70.0012 299.2495 0002732 275.8950  84.1897 14.98360502 76124,6950.099,96.105,573.862,570.065,0.0
55641.0,STARLINK-5065,PAYLOAD,2024-07-01 13:53:30,14.98329655,0.0002551,70.0009,297.9039,270.9709,89.1157,9.822e-05,1.079e-05,0.0,0 STARLINK-5065,1 55641U 23021P   24183.57882864  .00001079  00000-0  98220-4 0  9997,2 55641  70.0009 297.9039 0002551 270.9709  89.1157 14.98329655 76203,6950.194,96.107,573.832,570.286,0.0
55641.0,STARLINK-5065,PAYLOAD,2024-07-01 17:05:46,14.98331063,0.0002458,70.0013,297.5692,267.9989,92.0888,7.7073e-05,8.27e-06,0.0,0 STARLINK-5065,1 55641U 23021P   24183.71234823  .00000827  00000-0  77073-4 0  9992,2 55641  70.0013 297.5692 0002458 267.9989  92.0888 14.98331063 76526,6950.19,96.107,573.763,570.346,0.0
55641.0,STARLINK-5065,PAYLOAD,2024-07-02 13:55:31,14.9833206,0.0002861,69.9997,295.3772,271.9917,88.0914,-4.3871e-06,-1.45e-06,0.0,0 STARLINK-5065,1 55641U 23021P   24184.58022875 -.00000145  00000-0 -43871-5 0  9995,2 55641  69.9997 295.3772 0002861 271.9917  88.0914 14.98332060 76357,6950.187,96.107,574.04,570.063,0.0
